{
  "type": "FeatureCollection",
  "features": [
    {
      "type": "Feature",
      "properties": {
        "norad_id": 32350,
        "name": "FENGYUN 1C DEB",
        "group": "fengyun-1c-debris",
        "lat": 52.33007169836258,
        "lon": 28.20475400852554,
        "alt_km": 850.7192296214516,
        "timestamp": "2025-12-20T09:36:01.931512+00:00",
        "meta_object_name": "FENGYUN 1C DEB",
        "meta_object_id": "1999-025CYT",
        "meta_epoch": "2025-12-14T09:31:41.023776",
        "meta_mean_motion": 14.52585967,
        "meta_eccentricity": 0.02665518,
        "meta_inclination": 98.2297,
        "meta_ra_of_asc_node": 33.1134,
        "meta_arg_of_pericenter": 293.5046,
        "meta_mean_anomaly": 63.8346,
        "meta_ephemeris_type": 0,
        "meta_classification_type": "U",
        "meta_norad_cat_id": 32350,
        "meta_element_set_no": 999,
        "meta_rev_at_epoch": 97551,
        "meta_bstar": 0.00074129025,
        "meta_mean_motion_dot": 4.788e-05,
        "meta_mean_motion_ddot": 0,
        "tle_line1": "1 32350U 99025CYT 25348.39700259  .00004788  00000+0  74129-3 0  9997",
        "tle_line2": "2 32350  98.2297  33.1134 0266551 293.5046  63.8346 14.52585967975510"
      },
      "geometry": {
        "type": "Point",
        "coordinates": [
          28.20475400852554,
          52.33007169836258
        ]
      }
    },
    {
      "type": "Feature",
      "properties": {
        "norad_id": 32352,
        "name": "FENGYUN 1C DEB",
        "group": "fengyun-1c-debris",
        "lat": -26.507894649562655,
        "lon": 90.19919317523791,
        "alt_km": 712.977797227637,
        "timestamp": "2025-12-20T09:36:01.931522+00:00",
        "meta_object_name": "FENGYUN 1C DEB",
        "meta_object_id": "1999-025CYV",
        "meta_epoch": "2025-12-19T12:39:41.171040",
        "meta_mean_motion": 14.41429626,
        "meta_eccentricity": 0.0122359,
        "meta_inclination": 98.7786,
        "meta_ra_of_asc_node": 273.7231,
        "meta_arg_of_pericenter": 150.9024,
        "meta_mean_anomaly": 209.9056,
        "meta_ephemeris_type": 0,
        "meta_classification_type": "U",
        "meta_norad_cat_id": 32352,
        "meta_element_set_no": 999,
        "meta_rev_at_epoch": 65367,
        "meta_bstar": 0.0001377,
        "meta_mean_motion_dot": 4.38e-06,
        "meta_mean_motion_ddot": 0,
        "tle_line1": "1 32352U 99025CYV 25353.52755985  .00000438  00000+0  13770-3 0  9999",
        "tle_line2": "2 32352  98.7786 273.7231 0122359 150.9024 209.9056 14.41429626653677"
      },
      "geometry": {
        "type": "Point",
        "coordinates": [
          90.19919317523791,
          -26.507894649562655
        ]
      }
    },
    {
      "type": "Feature",
      "properties": {
        "norad_id": 32353,
        "name": "FENGYUN 1C DEB",
        "group": "fengyun-1c-debris",
        "lat": 59.42938330967707,
        "lon": 155.31304023421063,
        "alt_km": 915.1882757499179,
        "timestamp": "2025-12-20T09:36:01.931532+00:00",
        "meta_object_name": "FENGYUN 1C DEB",
        "meta_object_id": "1999-025CYW",
        "meta_epoch": "2025-12-14T18:10:27.215616",
        "meta_mean_motion": 14.03836024,
        "meta_eccentricity": 0.01250888,
        "meta_inclination": 98.9217,
        "meta_ra_of_asc_node": 165.1959,
        "meta_arg_of_pericenter": 193.6238,
        "meta_mean_anomaly": 166.1542,
        "meta_ephemeris_type": 0,
        "meta_classification_type": "U",
        "meta_norad_cat_id": 32353,
        "meta_element_set_no": 999,
        "meta_rev_at_epoch": 63222,
        "meta_bstar": 0.0024513199,
        "meta_mean_motion_dot": 4.1e-05,
        "meta_mean_motion_ddot": 0,
        "tle_line1": "1 32353U 99025CYW 25348.75725944  .00004100  00000+0  24513-2 0  9997",
        "tle_line2": "2 32353  98.9217 165.1959 0125088 193.6238 166.1542 14.03836024632227"
      },
      "geometry": {
        "type": "Point",
        "coordinates": [
          155.31304023421063,
          59.42938330967707
        ]
      }
    },
    {
      "type": "Feature",
      "properties": {
        "norad_id": 32355,
        "name": "FENGYUN 1C DEB",
        "group": "fengyun-1c-debris",
        "lat": -43.21252467994619,
        "lon": -63.91195593029086,
        "alt_km": 440.3802770332495,
        "timestamp": "2025-12-20T09:36:01.931543+00:00",
        "meta_object_name": "FENGYUN 1C DEB",
        "meta_object_id": "1999-025CYY",
        "meta_epoch": "2025-12-15T13:52:23.647008",
        "meta_mean_motion": 15.41566908,
        "meta_eccentricity": 0.00300422,
        "meta_inclination": 100.3422,
        "meta_ra_of_asc_node": 279.3759,
        "meta_arg_of_pericenter": 75.3409,
        "meta_mean_anomaly": 101.6774,
        "meta_ephemeris_type": 0,
        "meta_classification_type": "U",
        "meta_norad_cat_id": 32355,
        "meta_element_set_no": 999,
        "meta_rev_at_epoch": 65034,
        "meta_bstar": 0.009370241,
        "meta_mean_motion_dot": 0.00421206,
        "meta_mean_motion_ddot": 0,
        "tle_line1": "1 32355U 99025CYY 25349.57805147  .00421206  00000+0  93702-2 0  9990",
        "tle_line2": "2 32355 100.3422 279.3759 0030042  75.3409 101.6774 15.41566908650340"
      },
      "geometry": {
        "type": "Point",
        "coordinates": [
          -63.91195593029086,
          -43.21252467994619
        ]
      }
    },
    {
      "type": "Feature",
      "properties": {
        "norad_id": 32356,
        "name": "FENGYUN 1C DEB",
        "group": "fengyun-1c-debris",
        "lat": -61.65729105322234,
        "lon": 15.190143606232882,
        "alt_km": 923.4290371735178,
        "timestamp": "2025-12-20T09:36:01.931553+00:00",
        "meta_object_name": "FENGYUN 1C DEB",
        "meta_object_id": "1999-025CYZ",
        "meta_epoch": "2025-12-18T13:39:38.979360",
        "meta_mean_motion": 14.03420971,
        "meta_eccentricity": 0.01257795,
        "meta_inclination": 102.496,
        "meta_ra_of_asc_node": 216.9595,
        "meta_arg_of_pericenter": 1.6093,
        "meta_mean_anomaly": 358.5442,
        "meta_ephemeris_type": 0,
        "meta_classification_type": "U",
        "meta_norad_cat_id": 32356,
        "meta_element_set_no": 999,
        "meta_rev_at_epoch": 68469,
        "meta_bstar": 0.0018654991,
        "meta_mean_motion_dot": 3.058e-05,
        "meta_mean_motion_ddot": 0,
        "tle_line1": "1 32356U 99025CYZ 25352.56920115  .00003058  00000+0  18655-2 0  9992",
        "tle_line2": "2 32356 102.4960 216.9595 0125779   1.6093 358.5442 14.03420971684695"
      },
      "geometry": {
        "type": "Point",
        "coordinates": [
          15.190143606232882,
          -61.65729105322234
        ]
      }
    },
    {
      "type": "Feature",
      "properties": {
        "norad_id": 32357,
        "name": "FENGYUN 1C DEB",
        "group": "fengyun-1c-debris",
        "lat": -25.082821032654227,
        "lon": -151.03680399313038,
        "alt_km": 717.498265219042,
        "timestamp": "2025-12-20T09:36:01.931564+00:00",
        "meta_object_name": "FENGYUN 1C DEB",
        "meta_object_id": "1999-025CZA",
        "meta_epoch": "2025-12-13T21:20:47.666112",
        "meta_mean_motion": 13.68708108,
        "meta_eccentricity": 0.04907347,
        "meta_inclination": 98.8577,
        "meta_ra_of_asc_node": 27.1403,
        "meta_arg_of_pericenter": 184.5127,
        "meta_mean_anomaly": 353.61,
        "meta_ephemeris_type": 0,
        "meta_classification_type": "U",
        "meta_norad_cat_id": 32357,
        "meta_element_set_no": 999,
        "meta_rev_at_epoch": 66803,
        "meta_bstar": 0.0036548407,
        "meta_mean_motion_dot": 7.308e-05,
        "meta_mean_motion_ddot": 0,
        "tle_line1": "1 32357U 99025CZA 25347.88944058  .00007308  00000+0  36548-2 0  9997",
        "tle_line2": "2 32357  98.8577  27.1403 0490734 184.5127 353.6100 13.68708108668031"
      },
      "geometry": {
        "type": "Point",
        "coordinates": [
          -151.03680399313038,
          -25.082821032654227
        ]
      }
    },
    {
      "type": "Feature",
      "properties": {
        "norad_id": 32360,
        "name": "FENGYUN 1C DEB",
        "group": "fengyun-1c-debris",
        "lat": -17.95193387170399,
        "lon": -11.88165118903497,
        "alt_km": 895.4095538455786,
        "timestamp": "2025-12-20T09:36:01.931574+00:00",
        "meta_object_name": "FENGYUN 1C DEB",
        "meta_object_id": "1999-025CZD",
        "meta_epoch": "2025-12-18T05:06:51.185952",
        "meta_mean_motion": 13.98351056,
        "meta_eccentricity": 0.02332442,
        "meta_inclination": 98.1017,
        "meta_ra_of_asc_node": 168.829,
        "meta_arg_of_pericenter": 292.5211,
        "meta_mean_anomaly": 65.1418,
        "meta_ephemeris_type": 0,
        "meta_classification_type": "U",
        "meta_norad_cat_id": 32360,
        "meta_element_set_no": 999,
        "meta_rev_at_epoch": 64893,
        "meta_bstar": 0.0024572046,
        "meta_mean_motion_dot": 4.391e-05,
        "meta_mean_motion_ddot": 0,
        "tle_line1": "1 32360U 99025CZD 25352.21309243  .00004391  00000+0  24572-2 0  9998",
        "tle_line2": "2 32360  98.1017 168.8290 0233244 292.5211  65.1418 13.98351056648932"
      },
      "geometry": {
        "type": "Point",
        "coordinates": [
          -11.88165118903497,
          -17.95193387170399
        ]
      }
    }
  ]
}